EUTELSAT QUANTUM        
1 49056U 21069B   25341.92177624  .00000129  00000+0  00000+0 0  9995
2 49056   0.0312  50.9099 0003707 218.6445 186.9219  1.00271283 16019
EUTELSAT KONNECT VHTS   
1 53765U 22110A   25341.28326682  .00000022  00000+0  00000+0 0  9996
2 53765   0.0619 106.3169 0003032 122.2320 312.4415  1.00271597  4905
EUTELSAT HOTBIRD 13F    
1 54048U 22134A   25341.92734527  .00000090  00000+0  00000+0 0  9994
2 54048   0.0473 293.1939 0002145  59.5750  71.0316  1.00272440 11455
EUTELSAT HOTBIRD 13G    
1 54225U 22146A   25341.64206913  .00000091  00000+0  00000+0 0  9997
2 54225   0.0480 235.4719 0001926 313.1992 132.1292  1.00270103  5547
EUTELSAT 10B            
1 54259U 22157A   25341.92673860  .00000072  00000+0  00000+0 0  9995
2 54259   0.0613 101.8318 0001396  82.7656 235.9586  1.00277457 11106
EUTELSAT 36D            
1 59346U 24059A   25341.57524869  .00000000  00000+0  00000+0 0  9996
2 59346   0.0194 354.4859 0000515 312.0912  12.9682  1.00269502  6223
